NORAD_CAT_ID,OBJECT_NAME,OBJECT_TYPE,EPOCH,MEAN_MOTION,ECCENTRICITY,INCLINATION,RA_OF_ASC_NODE,ARG_OF_PERICENTER,MEAN_ANOMALY,BSTAR,MEAN_MOTION_DOT,MEAN_MOTION_DDOT,TLE_LINE0,TLE_LINE1,TLE_LINE2,SEMIMAJOR_AXIS,PERIOD,APOGEE,PERIGEE,DECAYED
53165.0,STARLINK-4090,PAYLOAD,2022-07-30 22:00:00,15.73226212,0.0001314,53.2177,340.8589,36.47,349.9904,0.00017867,0.00024556,0.0,0 STARLINK-4090,1 53165U 22083AK  22211.91667824  .00024556  00000-0  17867-3 0  9990,2 53165  53.2177 340.8589 0001314  36.4700 349.9904 15.73226212  1306,6727.82,91.532,350.569,348.801,0.0
53165.0,STARLINK-4090,PAYLOAD,2022-07-31 06:00:02,15.7320453,0.0001284999999999,53.2173,339.2076,47.9013,67.5692,-9.5236e-06,-1.956e-05,0.0,0 STARLINK-4090,1 53165U 22083AK  22212.25002315 -.00001956  00000-0 -95236-5 0  9995,2 53165  53.2173 339.2076 0001285  47.9013  67.5692 15.73204530  2808,6727.882,91.533,350.612,348.8830000000001,0.0
53165.0,STARLINK-4090,PAYLOAD,2022-07-31 14:00:01,15.73202012,0.0001383,53.2175,337.5598,45.2494,159.0896,3.0189e-05,3.619e-05,0.0,0 STARLINK-4090,1 53165U 22083AK  22212.58334491  .00003619  00000-0  30189-4 0  9995,2 53165  53.2175 337.5598 0001383  45.2494 159.0896 15.73202012  1303,6727.889,91.533,350.685,348.824,0.0
53165.0,STARLINK-4090,PAYLOAD,2022-07-31 20:00:01,15.73195718,0.0001621999999999,53.2178,336.3231,42.4751,138.6403,0.00046279,0.00064821,0.0,0 STARLINK-4090,1 53165U 22083AK  22212.83334491  .00064821  00000-0  46279-3 0  9991,2 53165  53.2178 336.3231 0001622  42.4751 138.6403 15.73195718  2894,6727.906999999997,91.533,350.86400000000015,348.681,0.0
53165.0,STARLINK-4090,PAYLOAD,2022-07-31 22:00:00,15.73228495,0.0001583,53.2177,335.9102,42.1753,251.1674,7.077199999999999e-05,9.335e-05,0.0,0 STARLINK-4090,1 53165U 22083AK  22212.91667824  .00009335  00000-0  70772-4 0  9994,2 53165  53.2177 335.9102 0001583  42.1753 251.1674 15.73228495  1305,6727.814,91.532,350.744,348.61400000000015,0.0
53165.0,STARLINK-4090,PAYLOAD,2022-08-01 04:00:00,15.73239219,0.0001356,53.2179,334.6717,45.7226,224.3477,-0.00017319,-0.00024895,0.0,0 STARLINK-4090,1 53165U 22083AK  22213.16667824 -.00024895  00000-0 -17319-3 0  9999,2 53165  53.2179 334.6717 0001356  45.7226 224.3477 15.73239219  2947,6727.783,91.531,350.561,348.736,0.0
53165.0,STARLINK-4090,PAYLOAD,2022-08-01 14:00:01,15.73222084,0.0001493,53.2177,332.6115,40.0873,71.1853,-0.00018028,-0.00025868,0.0,0 STARLINK-4090,1 53165U 22083AK  22213.58334491 -.00025868  00000-0 -18028-3 0  9995,2 53165  53.2177 332.6115 0001493  40.0873  71.1853 15.73222084  1300,6727.831999999999,91.532,350.702,348.6930000000001,0.0
53165.0,STARLINK-4090,PAYLOAD,2022-08-01 22:00:00,15.73210979,0.0001616,53.2177,330.962,39.2536,160.9625,-0.00037957,-0.00053579,0.0,0 STARLINK-4090,1 53165U 22083AK  22213.91667824 -.00053579  00000-0 -37957-3 0  9993,2 53165  53.2177 330.9620 0001616  39.2536 160.9625 15.73210979  1309,6727.864000000001,91.533,350.816,348.642,0.0
53165.0,STARLINK-4090,PAYLOAD,2022-08-02 06:00:02,15.73160172,0.0001541999999999,53.218,329.3106,47.1013,242.1028,0.00050839,0.00071214,0.0,0 STARLINK-4090,1 53165U 22083AK  22214.25002315  .00071214  00000-0  50839-3 0  9997,2 53165  53.2180 329.3106 0001542  47.1013 242.1028 15.73160172  3110,6728.009,91.535,350.911,348.836,0.0
53165.0,STARLINK-4090,PAYLOAD,2022-08-02 14:00:01,15.73234229,0.0001717,53.218,327.6632,40.4611,337.583,-0.00049525,-0.00069657,0.0,0 STARLINK-4090,1 53165U 22083AK  22214.58334491 -.00069657  00000-0 -49525-3 0  9996,2 53165  53.2180 327.6632 0001717  40.4611 337.5830 15.73234229  1303,6727.7980000000025,91.531,350.8180000000001,348.50699999999995,0.0
53165.0,STARLINK-4090,PAYLOAD,2022-08-03 04:00:00,15.73155092,0.0001464,53.2176,324.7751,38.1873,45.4926,0.0005221,0.00073152,0.0,0 STARLINK-4090,1 53165U 22083AK  22215.16667824  .00073152  00000-0  52210-3 0  9998,2 53165  53.2176 324.7751 0001464  38.1873  45.4926 15.73155092  3258,6728.023,91.536,350.87300000000016,348.903,0.0
53165.0,STARLINK-4090,PAYLOAD,2022-08-03 14:00:01,15.73210653,0.0001724,53.2175,322.7152,35.8484,248.9722,7.7702e-05,0.00010303,0.0,0 STARLINK-4090,1 53165U 22083AK  22215.58334491  .00010303  00000-0  77702-4 0  9998,2 53165  53.2175 322.7152 0001724  35.8484 248.9722 15.73210653  1304,6727.865,91.533,350.89,348.57,0.0
53165.0,STARLINK-4090,PAYLOAD,2022-08-03 20:00:01,15.73250641,0.0001793,53.2173,321.4781,33.7312,227.7984,-0.00041147,-0.00058099,0.0,0 STARLINK-4090,1 53165U 22083AK  22215.83334491 -.00058099  00000-0 -41147-3 0  9995,2 53165  53.2173 321.4781 0001793  33.7312 227.7984 15.73250641  3363,6727.751,91.53,350.82199999999995,348.41,0.0
53165.0,STARLINK-4090,PAYLOAD,2022-08-03 22:00:01,15.73259118,0.0001786999999999,53.2174,321.0651,35.63800000000001,338.1974,-0.0006799,-0.00095213,0.0,0 STARLINK-4090,1 53165U 22083AK  22215.91668981 -.00095213  00000-0 -67990-3 0  9991,2 53165  53.2174 321.0651 0001787  35.6380 338.1974 15.73259118  1301,6727.727,91.53,350.7940000000001,348.389,0.0
53165.0,STARLINK-4090,PAYLOAD,2022-08-04 12:00:00,15.73238426,0.0001929,53.2177,318.1785,39.3687,40.0443,-0.00033022,-0.00046788,0.0,0 STARLINK-4090,1 53165U 22083AK  22216.50001157 -.00046788  00000-0 -33022-3 0  9995,2 53165  53.2177 318.1785 0001929  39.3687  40.0443 15.73238426  3466,6727.786,91.531,350.9480000000001,348.353,0.0
53165.0,STARLINK-4090,PAYLOAD,2022-08-04 14:00:01,15.73239585,0.000198,53.2178,317.7665,37.974,153.6783,-0.00046026,-0.00064834,0.0,0 STARLINK-4090,1 53165U 22083AK  22216.58334491 -.00064834  00000-0 -46026-3 0  9993,2 53165  53.2178 317.7665 0001980  37.9740 153.6783 15.73239585  1306,6727.781999999997,91.531,350.97900000000016,348.315,0.0
53165.0,STARLINK-4090,PAYLOAD,2022-08-04 22:00:00,15.73204512,0.0001858,53.2174,316.1162,32.6106,247.9924,-0.00017265,-0.00024786,0.0,0 STARLINK-4090,1 53165U 22083AK  22216.91667824 -.00024786  00000-0 -17265-3 0  9994,2 53165  53.2174 316.1162 0001858  32.6106 247.9924 15.73204512  1305,6727.882,91.533,350.997,348.497,0.0
53165.0,STARLINK-4090,PAYLOAD,2022-08-05 12:00:00,15.73261621,0.0001854,53.2173,313.23,30.606,315.6269,-0.0006317,-0.00088587,0.0,0 STARLINK-4090,1 53165U 22083AK  22217.50001157 -.00088587  00000-0 -63170-3 0  9996,2 53165  53.2173 313.2300 0001854  30.6060 315.6269 15.73261621  3625,6727.719,91.53,350.832,348.337,0.0
53165.0,STARLINK-4090,PAYLOAD,2022-08-05 14:00:01,15.73242556,0.0001909,53.2173,312.8181,29.0526,69.4933,-0.00049162,-0.00069182,0.0,0 STARLINK-4090,1 53165U 22083AK  22217.58335648 -.00069182  00000-0 -49162-3 0  9994,2 53165  53.2173 312.8181 0001909  29.0526  69.4933 15.73242556  1308,6727.774,91.531,350.923,348.355,0.0
53165.0,STARLINK-4090,PAYLOAD,2022-08-05 22:00:00,15.7321432,0.0001844,53.2174,311.1676,26.08,161.3442,-4.8883e-05,-7.48e-05,0.0,0 STARLINK-4090,1 53165U 22083AK  22217.91667824 -.00007480  00000-0 -48883-4 0  9998,2 53165  53.2174 311.1676 0001844  26.0800 161.3442 15.73214320  3699,6727.854,91.532,350.96,348.47900000000016,0.0
53165.0,STARLINK-4090,PAYLOAD,2022-08-06 14:00:01,15.73178584,0.0002165,53.2179,307.8694,31.943,333.3529,0.00015541,0.00021226,0.0,0 STARLINK-4090,1 53165U 22083AK  22218.58334491  .00021226  00000-0  15541-3 0  9999,2 53165  53.2179 307.8694 0002165  31.9430 333.3529 15.73178584  1301,6727.956,91.534,351.278,348.365,0.0
53165.0,STARLINK-4090,PAYLOAD,2022-08-06 20:00:01,15.73228305,0.0002099,53.2175,306.6319,27.1907,314.7773,-0.00072034,-0.00100648,0.0,0 STARLINK-4090,1 53165U 22083AK  22218.83334491 -.00100648  00000-0 -72034-3 0  9995,2 53165  53.2175 306.6319 0002099  27.1907 314.7773 15.73228305  3831,6727.814,91.532,351.092,348.267,0.0
53165.0,STARLINK-4090,PAYLOAD,2022-08-06 22:00:00,15.73209627,0.0002019,53.2176,306.2189,27.6153,66.59,-0.00062732,-0.00087792,0.0,0 STARLINK-4090,1 53165U 22083AK  22218.91667824 -.00087792  00000-0 -62732-3 0  9991,2 53165  53.2176 306.2189 0002019  27.6153  66.5900 15.73209627  1303,6727.868,91.533,351.091,348.374,0.0
53165.0,STARLINK-4090,PAYLOAD,2022-08-07 04:00:00,15.73129125,0.0001869,53.2176,304.9809,29.11,41.778,0.00049009,0.00068516,0.0,0 STARLINK-4090,1 53165U 22083AK  22219.16667824  .00068516  00000-0  49009-3 0  9992,2 53165  53.2176 304.9809 0001869  29.1100  41.7780 15.73129125  3888,6728.097,91.537,351.22,348.705,0.0
53165.0,STARLINK-4090,PAYLOAD,2022-08-07 12:50:55,15.73190072,0.0001918,53.218,303.157,31.8505,328.2631,-1.7864e-05,-3.126e-05,0.0,0 STARLINK-4090,1 53165U 22083AK  22219.53536585 -.00003126  00000-0 -17864-4 0  9995,2 53165  53.2180 303.1570 0001918  31.8505 328.2631 15.73190072  3329,6727.9230000000025,91.534,351.079,348.49800000000016,0.0
53165.0,STARLINK-4090,PAYLOAD,2022-08-07 22:00:00,15.73230238,0.0002083,53.2176,301.2707,25.6783,335.2393,9.3233e-05,0.000125,0.0,0 STARLINK-4090,1 53165U 22083AK  22219.91667824  .00012500  00000-0  93233-4 0  9996,2 53165  53.2176 301.2707 0002083  25.6783 335.2393 15.73230238  1317,6727.809,91.531,351.075,348.273,0.0
53165.0,STARLINK-4090,PAYLOAD,2022-08-08 02:34:14,15.73210389,0.0002306,53.2183,300.3288,25.8415,334.272,3.0266e-05,3.63e-05,0.0,0 STARLINK-4090,1 53165U 22083AK  22220.10711149  .00003630  00000-0  30266-4 0  9990,2 53165  53.2183 300.3288 0002306  25.8415 334.2720 15.73210389  4031,6727.866,91.533,351.282,348.17900000000014,0.0
53165.0,STARLINK-4090,PAYLOAD,2022-08-08 14:00:01,15.73232931,0.0002306,53.2181,297.9728,22.2551,156.7308,0.0002746,0.0003815,0.0,0 STARLINK-4090,1 53165U 22083AK  22220.58335648  .00038150  00000-0  27460-3 0  9994,2 53165  53.2181 297.9728 0002306  22.2551 156.7308 15.73232931  4116,6727.801,91.531,351.218,348.115,0.0
53165.0,STARLINK-4090,PAYLOAD,2022-08-08 22:00:00,15.73294795,0.000222,53.2178,296.3219,23.3209,244.601,-0.00092035,-0.00128372,0.0,0 STARLINK-4090,1 53165U 22083AK  22220.91667824 -.00128372  00000-0 -92035-3 0  9993,2 53165  53.2178 296.3219 0002220  23.3209 244.6010 15.73294795  1308,6727.625,91.528,350.983,347.996,0.0
